<gpx xmlns:ns3="http://www.garmin.com/xmlschemas/TrackPointExtension/v1" xmlns="http://www.topografix.com/GPX/1/1" xmlns:xsi="http://www.w3.org/2001/XMLSchema-instance" xmlns:ns2="http://www.garmin.com/xmlschemas/GpxExtensions/v3" creator="Garmin Connect" version="1.1" xsi:schemaLocation="http://www.topografix.com/GPX/1/1 http://www.topografix.com/GPX/11.xsd">
  <extensions>
<distance>2729.38</distance>
<average_hr>140.0</average_hr>
<average_speed>2.4619998931884766</average_speed>
<start_time>2026-01-12T19:44:56+00:00</start_time>
<end_time>2026-01-12T20:03:24.475000+00:00</end_time>
<moving_time>1108.246</moving_time>
<elapsed_time>1108.475</elapsed_time>
</extensions>
<metadata>
    <link href="connect.garmin.com">
      <text>Garmin Connect</text>
    </link>
    <time>2026-01-12T19:44:56.000Z</time>
  </metadata>
  <trk>
    <name>Jersey City Running</name>
    <type>running</type>
    <trkseg>
      <trkpt lat="40.72171912528574466705322265625" lon="-74.03934300877153873443603515625">
        <ele>2</ele>
        <time>2026-01-12T19:44:56.000Z</time>
        <extensions>
          <ns3:TrackPointExtension>
            <ns3:hr>96</ns3:hr>
            <ns3:cad>55</ns3:cad>
          </ns3:TrackPointExtension>
        </extensions>
      </trkpt>
      <trkpt lat="40.72174075059592723846435546875" lon="-74.03933982364833354949951171875">
        <ele>2</ele>
        <time>2026-01-12T19:44:57.000Z</time>
        <extensions>
          <ns3:TrackPointExtension>
            <ns3:hr>96</ns3:hr>
            <ns3:cad>55</ns3:cad>
          </ns3:TrackPointExtension>
        </extensions>
      </trkpt>
      <trkpt lat="40.72178048081696033477783203125" lon="-74.03931207954883575439453125">
        <ele>2</ele>
        <time>2026-01-12T19:44:59.000Z</time>
        <extensions>
          <ns3:TrackPointExtension>
            <ns3:hr>95</ns3:hr>
            <ns3:cad>56</ns3:cad>
          </ns3:TrackPointExtension>
        </extensions>
      </trkpt>
      <trkpt lat="40.72181836701929569244384765625" lon="-74.03925851918756961822509765625">
        <ele>2</ele>
        <time>2026-01-12T19:45:01.000Z</time>
        <extensions>
          <ns3:TrackPointExtension>
            <ns3:hr>95</ns3:hr>
            <ns3:cad>56</ns3:cad>
          </ns3:TrackPointExtension>
        </extensions>
      </trkpt>
      <trkpt lat="40.7219374738633632659912109375" lon="-74.039048217236995697021484375">
        <ele>2</ele>
        <time>2026-01-12T19:45:08.000Z</time>
        <extensions>
          <ns3:TrackPointExtension>
            <ns3:hr>95</ns3:hr>
            <ns3:cad>83</ns3:cad>
          </ns3:TrackPointExtension>
        </extensions>
      </trkpt>
      <trkpt lat="40.7219951413571834564208984375" lon="-74.03885467909276485443115234375">
        <ele>2</ele>
        <time>2026-01-12T19:45:14.000Z</time>
        <extensions>
          <ns3:TrackPointExtension>
            <ns3:hr>98</ns3:hr>
            <ns3:cad>85</ns3:cad>
          </ns3:TrackPointExtension>
        </extensions>
      </trkpt>
      <trkpt lat="40.7220135815441608428955078125" lon="-74.03864412568509578704833984375">
        <ele>2</ele>
        <time>2026-01-12T19:45:21.000Z</time>
        <extensions>
          <ns3:TrackPointExtension>
            <ns3:hr>101</ns3:hr>
            <ns3:cad>84</ns3:cad>
          </ns3:TrackPointExtension>
        </extensions>
      </trkpt>
      <trkpt lat="40.72200159542262554168701171875" lon="-74.03854857198894023895263671875">
        <ele>2</ele>
        <time>2026-01-12T19:45:24.000Z</time>
        <extensions>
          <ns3:TrackPointExtension>
            <ns3:hr>104</ns3:hr>
            <ns3:cad>84</ns3:cad>
          </ns3:TrackPointExtension>
        </extensions>
      </trkpt>
      <trkpt lat="40.721905119717121124267578125" lon="-74.03831153176724910736083984375">
        <ele>2</ele>
        <time>2026-01-12T19:45:32.000Z</time>
        <extensions>
          <ns3:TrackPointExtension>
            <ns3:hr>107</ns3:hr>
            <ns3:cad>85</ns3:cad>
          </ns3:TrackPointExtension>
        </extensions>
      </trkpt>
      <trkpt lat="40.7219022698700428009033203125" lon="-74.03828118927776813507080078125">
        <ele>2</ele>
        <time>2026-01-12T19:45:33.000Z</time>
        <extensions>
          <ns3:TrackPointExtension>
            <ns3:hr>111</ns3:hr>
            <ns3:cad>84</ns3:cad>
          </ns3:TrackPointExtension>
        </extensions>
      </trkpt>
      <trkpt lat="40.7219089753925800323486328125" lon="-74.03824648819863796234130859375">
        <ele>2</ele>
        <time>2026-01-12T19:45:34.000Z</time>
        <extensions>
          <ns3:TrackPointExtension>
            <ns3:hr>114</ns3:hr>
            <ns3:cad>84</ns3:cad>
          </ns3:TrackPointExtension>
        </extensions>
      </trkpt>
      <trkpt lat="40.7218674011528491973876953125" lon="-74.03817893005907535552978515625">
        <ele>2</ele>
        <time>2026-01-12T19:45:36.000Z</time>
        <extensions>
          <ns3:TrackPointExtension>
            <ns3:hr>117</ns3:hr>
            <ns3:cad>85</ns3:cad>
          </ns3:TrackPointExtension>
        </extensions>
      </trkpt>
      <trkpt lat="40.72184669785201549530029296875" lon="-74.03814540244638919830322265625">
        <ele>2</ele>
        <time>2026-01-12T19:45:37.000Z</time>
        <extensions>
          <ns3:TrackPointExtension>
            <ns3:hr>120</ns3:hr>
            <ns3:cad>85</ns3:cad>
          </ns3:TrackPointExtension>
        </extensions>
      </trkpt>
      <trkpt lat="40.72182230651378631591796875" lon="-74.03805839829146862030029296875">
        <ele>2</ele>
        <time>2026-01-12T19:45:40.000Z</time>
        <extensions>
          <ns3:TrackPointExtension>
            <ns3:hr>117</ns3:hr>
            <ns3:cad>86</ns3:cad>
          </ns3:TrackPointExtension>
        </extensions>
      </trkpt>
      <trkpt lat="40.72180294431746006011962890625" lon="-74.03803274966776371002197265625">
        <ele>2</ele>
        <time>2026-01-12T19:45:41.000Z</time>
        <extensions>
          <ns3:TrackPointExtension>
            <ns3:hr>120</ns3:hr>
            <ns3:cad>86</ns3:cad>
          </ns3:TrackPointExtension>
        </extensions>
      </trkpt>
      <trkpt lat="40.72174242697656154632568359375" lon="-74.0379114635288715362548828125">
        <ele>2</ele>
        <time>2026-01-12T19:45:46.000Z</time>
        <extensions>
          <ns3:TrackPointExtension>
            <ns3:hr>127</ns3:hr>
            <ns3:cad>82</ns3:cad>
          </ns3:TrackPointExtension>
        </extensions>
      </trkpt>
      <trkpt lat="40.7217319495975971221923828125" lon="-74.037883467972278594970703125">
        <ele>2</ele>
        <time>2026-01-12T19:45:47.000Z</time>
        <extensions>
          <ns3:TrackPointExtension>
            <ns3:hr>126</ns3:hr>
            <ns3:cad>82</ns3:cad>
          </ns3:TrackPointExtension>
        </extensions>
      </trkpt>
      <trkpt lat="40.72178768925368785858154296875" lon="-74.03774541802704334259033203125">
        <ele>2</ele>
        <time>2026-01-12T19:45:55.000Z</time>
        <extensions>
          <ns3:TrackPointExtension>
            <ns3:hr>130</ns3:hr>
            <ns3:cad>83</ns3:cad>
          </ns3:TrackPointExtension>
        </extensions>
      </trkpt>
      <trkpt lat="40.72192263789474964141845703125" lon="-74.037432186305522918701171875">
        <ele>2</ele>
        <time>2026-01-12T19:46:05.000Z</time>
        <extensions>
          <ns3:TrackPointExtension>
            <ns3:hr>132</ns3:hr>
            <ns3:cad>84</ns3:cad>
          </ns3:TrackPointExtension>
        </extensions>
      </trkpt>
      <trkpt lat="40.72193487547338008880615234375" lon="-74.037370495498180389404296875">
        <ele>2</ele>
        <time>2026-01-12T19:46:07.000Z</time>
        <extensions>
          <ns3:TrackPointExtension>
            <ns3:hr>129</ns3:hr>
            <ns3:cad>85</ns3:cad>
          </ns3:TrackPointExtension>
        </extensions>
      </trkpt>
      <trkpt lat="40.7219364680349826812744140625" lon="-74.0373311005532741546630859375">
        <ele>2</ele>
        <time>2026-01-12T19:46:08.000Z</time>
        <extensions>
          <ns3:TrackPointExtension>
            <ns3:hr>133</ns3:hr>
            <ns3:cad>85</ns3:cad>
          </ns3:TrackPointExtension>
        </extensions>
      </trkpt>
      <trkpt lat="40.72194091044366359710693359375" lon="-74.0372865088284015655517578125">
        <ele>2</ele>
        <time>2026-01-12T19:46:09.000Z</time>
        <extensions>
          <ns3:TrackPointExtension>
            <ns3:hr>136</ns3:hr>
            <ns3:cad>84</ns3:cad>
          </ns3:TrackPointExtension>
        </extensions>
      </trkpt>
      <trkpt lat="40.72194493375718593597412109375" lon="-74.03724317438900470733642578125">
        <ele>2</ele>
        <time>2026-01-12T19:46:10.000Z</time>
        <extensions>
          <ns3:TrackPointExtension>
            <ns3:hr>136</ns3:hr>
            <ns3:cad>84</ns3:cad>
          </ns3:TrackPointExtension>
        </extensions>
      </trkpt>
      <trkpt lat="40.72196136228740215301513671875" lon="-74.03719891794025897979736328125">
        <ele>2</ele>
        <time>2026-01-12T19:46:11.000Z</time>
        <extensions>
          <ns3:TrackPointExtension>
            <ns3:hr>133</ns3:hr>
            <ns3:cad>83</ns3:cad>
          </ns3:TrackPointExtension>
        </extensions>
      </trkpt>
      <trkpt lat="40.72200008668005466461181640625" lon="-74.03697579167783260345458984375">
        <ele>2</ele>
        <time>2026-01-12T19:46:16.000Z</time>
        <extensions>
          <ns3:TrackPointExtension>
            <ns3:hr>138</ns3:hr>
            <ns3:cad>83</ns3:cad>
          </ns3:TrackPointExtension>
        </extensions>
      </trkpt>
      <trkpt lat="40.7220236398279666900634765625" lon="-74.036789797246456146240234375">
        <ele>2</ele>
        <time>2026-01-12T19:46:21.000Z</time>
        <extensions>
          <ns3:TrackPointExtension>
            <ns3:hr>141</ns3:hr>
            <ns3:cad>84</ns3:cad>
          </ns3:TrackPointExtension>
        </extensions>
      </trkpt>
      <trkpt lat="40.7220279984176158905029296875" lon="-74.0367721952497959136962890625">
        <ele>2</ele>
        <time>2026-01-12T19:46:22.000Z</time>
        <extensions>
          <ns3:TrackPointExtension>
            <ns3:hr>136</ns3:hr>
            <ns3:cad>84</ns3:cad>
          </ns3:TrackPointExtension>
        </extensions>
      </trkpt>
      <trkpt lat="40.72203244082629680633544921875" lon="-74.03674428351223468780517578125">
        <ele>2</ele>
        <time>2026-01-12T19:46:24.000Z</time>
        <extensions>
          <ns3:TrackPointExtension>
            <ns3:hr>133</ns3:hr>
            <ns3:cad>84</ns3:cad>
          </ns3:TrackPointExtension>
        </extensions>
      </trkpt>
      <trkpt lat="40.722028501331806182861328125" lon="-74.036728441715240478515625">
        <ele>2</ele>
        <time>2026-01-12T19:46:25.000Z</time>
        <extensions>
          <ns3:TrackPointExtension>
            <ns3:hr>130</ns3:hr>
            <ns3:cad>84</ns3:cad>
          </ns3:TrackPointExtension>
        </extensions>
      </trkpt>
      <trkpt lat="40.72203017771244049072265625" lon="-74.03671075589954853057861328125">
        <ele>2</ele>
        <time>2026-01-12T19:46:26.000Z</time>
        <extensions>
          <ns3:TrackPointExtension>
            <ns3:hr>128</ns3:hr>
            <ns3:cad>84</ns3:cad>
          </ns3:TrackPointExtension>
        </extensions>
      </trkpt>
      <trkpt lat="40.7221220433712005615234375" lon="-74.0365448780357837677001953125">
        <ele>2</ele>
        <time>2026-01-12T19:46:37.000Z</time>
        <extensions>
          <ns3:TrackPointExtension>
            <ns3:hr>127</ns3:hr>
            <ns3:cad>84</ns3:cad>
          </ns3:TrackPointExtension>
        </extensions>
      </trkpt>
      <trkpt lat="40.722269900143146514892578125" lon="-74.03653389774262905120849609375">
        <ele>2</ele>
        <time>2026-01-12T19:46:44.000Z</time>
        <extensions>
          <ns3:TrackPointExtension>
            <ns3:hr>130</ns3:hr>
            <ns3:cad>82</ns3:cad>
          </ns3:TrackPointExtension>
        </extensions>
      </trkpt>
      <trkpt lat="40.72240979410707950592041015625" lon="-74.03657756745815277099609375">
        <ele>2</ele>
        <time>2026-01-12T19:46:50.000Z</time>
        <extensions>
          <ns3:TrackPointExtension>
            <ns3:hr>133</ns3:hr>
            <ns3:cad>82</ns3:cad>
          </ns3:TrackPointExtension>
        </extensions>
      </trkpt>
      <trkpt lat="40.722599141299724578857421875" lon="-74.03649710118770599365234375">
        <ele>2</ele>
        <time>2026-01-12T19:47:02.000Z</time>
        <extensions>
          <ns3:TrackPointExtension>
            <ns3:hr>134</ns3:hr>
            <ns3:cad>83</ns3:cad>
          </ns3:TrackPointExtension>
        </extensions>
      </trkpt>
      <trkpt lat="40.72281447239220142364501953125" lon="-74.03634823858737945556640625">
        <ele>2</ele>
        <time>2026-01-12T19:47:15.000Z</time>
        <extensions>
          <ns3:TrackPointExtension>
            <ns3:hr>134</ns3:hr>
            <ns3:cad>74</ns3:cad>
          </ns3:TrackPointExtension>
        </extensions>
      </trkpt>
      <trkpt lat="40.72283626534044742584228515625" lon="-74.036331139504909515380859375">
        <ele>2</ele>
        <time>2026-01-12T19:47:16.000Z</time>
        <extensions>
          <ns3:TrackPointExtension>
            <ns3:hr>134</ns3:hr>
            <ns3:cad>74</ns3:cad>
          </ns3:TrackPointExtension>
        </extensions>
      </trkpt>
      <trkpt lat="40.72293332777917385101318359375" lon="-74.0362967737019062042236328125">
        <ele>2</ele>
        <time>2026-01-12T19:47:19.000Z</time>
        <extensions>
          <ns3:TrackPointExtension>
            <ns3:hr>132</ns3:hr>
            <ns3:cad>81</ns3:cad>
          </ns3:TrackPointExtension>
        </extensions>
      </trkpt>
      <trkpt lat="40.72301362641155719757080078125" lon="-74.03628545813262462615966796875">
        <ele>2</ele>
        <time>2026-01-12T19:47:21.000Z</time>
        <extensions>
          <ns3:TrackPointExtension>
            <ns3:hr>133</ns3:hr>
            <ns3:cad>83</ns3:cad>
          </ns3:TrackPointExtension>
        </extensions>
      </trkpt>
      <trkpt lat="40.723078250885009765625" lon="-74.03627590276300907135009765625">
        <ele>2</ele>
        <time>2026-01-12T19:47:23.000Z</time>
        <extensions>
          <ns3:TrackPointExtension>
            <ns3:hr>134</ns3:hr>
            <ns3:cad>83</ns3:cad>
          </ns3:TrackPointExtension>
        </extensions>
      </trkpt>
      <trkpt lat="40.723267681896686553955078125" lon="-74.03628093190491199493408203125">
        <ele>2</ele>
        <time>2026-01-12T19:47:29.000Z</time>
        <extensions>
          <ns3:TrackPointExtension>
            <ns3:hr>134</ns3:hr>
            <ns3:cad>81</ns3:cad>
          </ns3:TrackPointExtension>
        </extensions>
      </trkpt>
      <trkpt lat="40.7233033888041973114013671875" lon="-74.03623315505683422088623046875">
        <ele>2</ele>
        <time>2026-01-12T19:47:33.000Z</time>
        <extensions>
          <ns3:TrackPointExtension>
            <ns3:hr>133</ns3:hr>
            <ns3:cad>84</ns3:cad>
          </ns3:TrackPointExtension>
        </extensions>
      </trkpt>
      <trkpt lat="40.72339114733040332794189453125" lon="-74.03617062605917453765869140625">
        <ele>2</ele>
        <time>2026-01-12T19:47:49.000Z</time>
        <extensions>
          <ns3:TrackPointExtension>
            <ns3:hr>134</ns3:hr>
            <ns3:cad>81</ns3:cad>
          </ns3:TrackPointExtension>
        </extensions>
      </trkpt>
      <trkpt lat="40.7234237529337406158447265625" lon="-74.036181271076202392578125">
        <ele>2</ele>
        <time>2026-01-12T19:47:50.000Z</time>
        <extensions>
          <ns3:TrackPointExtension>
            <ns3:hr>134</ns3:hr>
            <ns3:cad>82</ns3:cad>
          </ns3:TrackPointExtension>
        </extensions>
      </trkpt>
      <trkpt lat="40.72351075708866119384765625" lon="-74.036193005740642547607421875">
        <ele>2.2000000476837158203125</ele>
        <time>2026-01-12T19:47:53.000Z</time>
        <extensions>
          <ns3:TrackPointExtension>
            <ns3:hr>133</ns3:hr>
            <ns3:cad>83</ns3:cad>
          </ns3:TrackPointExtension>
        </extensions>
      </trkpt>
      <trkpt lat="40.72372189722955226898193359375" lon="-74.03613626025617122650146484375">
        <ele>2</ele>
        <time>2026-01-12T19:48:03.000Z</time>
        <extensions>
          <ns3:TrackPointExtension>
            <ns3:hr>132</ns3:hr>
            <ns3:cad>83</ns3:cad>
          </ns3:TrackPointExtension>
        </extensions>
      </trkpt>
      <trkpt lat="40.7239306904375553131103515625" lon="-74.03618328273296356201171875">
        <ele>2.2000000476837158203125</ele>
        <time>2026-01-12T19:48:09.000Z</time>
        <extensions>
          <ns3:TrackPointExtension>
            <ns3:hr>133</ns3:hr>
            <ns3:cad>82</ns3:cad>
          </ns3:TrackPointExtension>
        </extensions>
      </trkpt>
      <trkpt lat="40.7240249030292034149169921875" lon="-74.03618621639907360076904296875">
        <ele>2.2000000476837158203125</ele>
        <time>2026-01-12T19:48:12.000Z</time>
        <extensions>
          <ns3:TrackPointExtension>
            <ns3:hr>133</ns3:hr>
            <ns3:cad>81</ns3:cad>
          </ns3:TrackPointExtension>
        </extensions>
      </trkpt>
      <trkpt lat="40.724158845841884613037109375" lon="-74.0360966138541698455810546875">
        <ele>2</ele>
        <time>2026-01-12T19:48:21.000Z</time>
        <extensions>
          <ns3:TrackPointExtension>
            <ns3:hr>135</ns3:hr>
            <ns3:cad>79</ns3:cad>
          </ns3:TrackPointExtension>
        </extensions>
      </trkpt>
      <trkpt lat="40.72423285804688930511474609375" lon="-74.035940207540988922119140625">
        <ele>2</ele>
        <time>2026-01-12T19:48:28.000Z</time>
        <extensions>
          <ns3:TrackPointExtension>
            <ns3:hr>135</ns3:hr>
            <ns3:cad>82</ns3:cad>
          </ns3:TrackPointExtension>
        </extensions>
      </trkpt>
      <trkpt lat="40.72426521219313144683837890625" lon="-74.03569042682647705078125">
        <ele>2</ele>
        <time>2026-01-12T19:48:35.000Z</time>
        <extensions>
          <ns3:TrackPointExtension>
            <ns3:hr>137</ns3:hr>
            <ns3:cad>82</ns3:cad>
          </ns3:TrackPointExtension>
        </extensions>
      </trkpt>
      <trkpt lat="40.72421525605022907257080078125" lon="-74.03544274158775806427001953125">
        <ele>1.60000002384185791015625</ele>
        <time>2026-01-12T19:48:44.000Z</time>
        <extensions>
          <ns3:TrackPointExtension>
            <ns3:hr>138</ns3:hr>
            <ns3:cad>83</ns3:cad>
          </ns3:TrackPointExtension>
        </extensions>
      </trkpt>
      <trkpt lat="40.7242463529109954833984375" lon="-74.0351729281246662139892578125">
        <ele>1</ele>
        <time>2026-01-12T19:48:51.000Z</time>
        <extensions>
          <ns3:TrackPointExtension>
            <ns3:hr>139</ns3:hr>
            <ns3:cad>82</ns3:cad>
          </ns3:TrackPointExtension>
        </extensions>
      </trkpt>
      <trkpt lat="40.72424978949129581451416015625" lon="-74.03512925840914249420166015625">
        <ele>1</ele>
        <time>2026-01-12T19:48:52.000Z</time>
        <extensions>
          <ns3:TrackPointExtension>
            <ns3:hr>138</ns3:hr>
            <ns3:cad>82</ns3:cad>
          </ns3:TrackPointExtension>
        </extensions>
      </trkpt>
      <trkpt lat="40.72424476034939289093017578125" lon="-74.03485449962317943572998046875">
        <ele>1</ele>
        <time>2026-01-12T19:48:59.000Z</time>
        <extensions>
          <ns3:TrackPointExtension>
            <ns3:hr>138</ns3:hr>
            <ns3:cad>83</ns3:cad>
          </ns3:TrackPointExtension>
        </extensions>
      </trkpt>
      <trkpt lat="40.72421743534505367279052734375" lon="-74.0346173755824565887451171875">
        <ele>0.60000002384185791015625</ele>
        <time>2026-01-12T19:49:05.000Z</time>
        <extensions>
          <ns3:TrackPointExtension>
            <ns3:hr>140</ns3:hr>
            <ns3:cad>83</ns3:cad>
          </ns3:TrackPointExtension>
        </extensions>
      </trkpt>
      <trkpt lat="40.72418608702719211578369140625" lon="-74.0343625657260417938232421875">
        <ele>0</ele>
        <time>2026-01-12T19:49:12.000Z</time>
        <extensions>
          <ns3:TrackPointExtension>
            <ns3:hr>138</ns3:hr>
            <ns3:cad>83</ns3:cad>
          </ns3:TrackPointExtension>
        </extensions>
      </trkpt>
      <trkpt lat="40.72419094853103160858154296875" lon="-74.03419115580618381500244140625">
        <ele>0</ele>
        <time>2026-01-12T19:49:17.000Z</time>
        <extensions>
          <ns3:TrackPointExtension>
            <ns3:hr>138</ns3:hr>
            <ns3:cad>83</ns3:cad>
          </ns3:TrackPointExtension>
        </extensions>
      </trkpt>
      <trkpt lat="40.7242750190198421478271484375" lon="-74.0340722166001796722412109375">
        <ele>0</ele>
        <time>2026-01-12T19:49:22.000Z</time>
        <extensions>
          <ns3:TrackPointExtension>
            <ns3:hr>139</ns3:hr>
            <ns3:cad>83</ns3:cad>
          </ns3:TrackPointExtension>
        </extensions>
      </trkpt>
      <trkpt lat="40.7243457622826099395751953125" lon="-74.03399686329066753387451171875">
        <ele>0</ele>
        <time>2026-01-12T19:49:27.000Z</time>
        <extensions>
          <ns3:TrackPointExtension>
            <ns3:hr>138</ns3:hr>
            <ns3:cad>82</ns3:cad>
          </ns3:TrackPointExtension>
        </extensions>
      </trkpt>
      <trkpt lat="40.72444844059646129608154296875" lon="-74.03397222049534320831298828125">
        <ele>0</ele>
        <time>2026-01-12T19:49:32.000Z</time>
        <extensions>
          <ns3:TrackPointExtension>
            <ns3:hr>139</ns3:hr>
            <ns3:cad>82</ns3:cad>
          </ns3:TrackPointExtension>
        </extensions>
      </trkpt>
      <trkpt lat="40.72454902343451976776123046875" lon="-74.03395126573741436004638671875">
        <ele>0</ele>
        <time>2026-01-12T19:49:37.000Z</time>
        <extensions>
          <ns3:TrackPointExtension>
            <ns3:hr>137</ns3:hr>
            <ns3:cad>83</ns3:cad>
          </ns3:TrackPointExtension>
        </extensions>
      </trkpt>
      <trkpt lat="40.7246808707714080810546875" lon="-74.03394808061420917510986328125">
        <ele>0</ele>
        <time>2026-01-12T19:49:42.000Z</time>
        <extensions>
          <ns3:TrackPointExtension>
            <ns3:hr>136</ns3:hr>
            <ns3:cad>81</ns3:cad>
          </ns3:TrackPointExtension>
        </extensions>
      </trkpt>
      <trkpt lat="40.7248624227941036224365234375" lon="-74.0340618230402469635009765625">
        <ele>0</ele>
        <time>2026-01-12T19:49:47.000Z</time>
        <extensions>
          <ns3:TrackPointExtension>
            <ns3:hr>136</ns3:hr>
            <ns3:cad>82</ns3:cad>
          </ns3:TrackPointExtension>
        </extensions>
      </trkpt>
      <trkpt lat="40.72502612136304378509521484375" lon="-74.03416651301085948944091796875">
        <ele>0</ele>
        <time>2026-01-12T19:49:54.000Z</time>
        <extensions>
          <ns3:TrackPointExtension>
            <ns3:hr>136</ns3:hr>
            <ns3:cad>83</ns3:cad>
          </ns3:TrackPointExtension>
        </extensions>
      </trkpt>
      <trkpt lat="40.72508177720010280609130859375" lon="-74.034215547144412994384765625">
        <ele>0</ele>
        <time>2026-01-12T19:49:57.000Z</time>
        <extensions>
          <ns3:TrackPointExtension>
            <ns3:hr>136</ns3:hr>
            <ns3:cad>82</ns3:cad>
          </ns3:TrackPointExtension>
        </extensions>
      </trkpt>
      <trkpt lat="40.72519778273999691009521484375" lon="-74.03440455906093120574951171875">
        <ele>0</ele>
        <time>2026-01-12T19:50:06.000Z</time>
        <extensions>
          <ns3:TrackPointExtension>
            <ns3:hr>138</ns3:hr>
            <ns3:cad>82</ns3:cad>
          </ns3:TrackPointExtension>
        </extensions>
      </trkpt>
      <trkpt lat="40.72534538805484771728515625" lon="-74.03458896093070507049560546875">
        <ele>0</ele>
        <time>2026-01-12T19:50:15.000Z</time>
        <extensions>
          <ns3:TrackPointExtension>
            <ns3:hr>139</ns3:hr>
            <ns3:cad>81</ns3:cad>
          </ns3:TrackPointExtension>
        </extensions>
      </trkpt>
      <trkpt lat="40.72535955347120761871337890625" lon="-74.03459399007260799407958984375">
        <ele>0</ele>
        <time>2026-01-12T19:50:16.000Z</time>
        <extensions>
          <ns3:TrackPointExtension>
            <ns3:hr>139</ns3:hr>
            <ns3:cad>81</ns3:cad>
          </ns3:TrackPointExtension>
        </extensions>
      </trkpt>
      <trkpt lat="40.7255648262798786163330078125" lon="-74.0345895476639270782470703125">
        <ele>0</ele>
        <time>2026-01-12T19:50:26.000Z</time>
        <extensions>
          <ns3:TrackPointExtension>
            <ns3:hr>139</ns3:hr>
            <ns3:cad>81</ns3:cad>
          </ns3:TrackPointExtension>
        </extensions>
      </trkpt>
      <trkpt lat="40.725739337503910064697265625" lon="-74.03466456569731235504150390625">
        <ele>0</ele>
        <time>2026-01-12T19:50:35.000Z</time>
        <extensions>
          <ns3:TrackPointExtension>
            <ns3:hr>137</ns3:hr>
            <ns3:cad>81</ns3:cad>
          </ns3:TrackPointExtension>
        </extensions>
      </trkpt>
      <trkpt lat="40.72589096613228321075439453125" lon="-74.034679569303989410400390625">
        <ele>0</ele>
        <time>2026-01-12T19:50:42.000Z</time>
        <extensions>
          <ns3:TrackPointExtension>
            <ns3:hr>139</ns3:hr>
            <ns3:cad>83</ns3:cad>
          </ns3:TrackPointExtension>
        </extensions>
      </trkpt>
      <trkpt lat="40.72607151232659816741943359375" lon="-74.03466406278312206268310546875">
        <ele>0</ele>
        <time>2026-01-12T19:50:48.000Z</time>
        <extensions>
          <ns3:TrackPointExtension>
            <ns3:hr>138</ns3:hr>
            <ns3:cad>83</ns3:cad>
          </ns3:TrackPointExtension>
        </extensions>
      </trkpt>
      <trkpt lat="40.72618491947650909423828125" lon="-74.03473447076976299285888671875">
        <ele>0</ele>
        <time>2026-01-12T19:50:54.000Z</time>
        <extensions>
          <ns3:TrackPointExtension>
            <ns3:hr>135</ns3:hr>
            <ns3:cad>84</ns3:cad>
          </ns3:TrackPointExtension>
        </extensions>
      </trkpt>
      <trkpt lat="40.7262269966304302215576171875" lon="-74.0347498096525669097900390625">
        <ele>0</ele>
        <time>2026-01-12T19:50:56.000Z</time>
        <extensions>
          <ns3:TrackPointExtension>
            <ns3:hr>134</ns3:hr>
            <ns3:cad>84</ns3:cad>
          </ns3:TrackPointExtension>
        </extensions>
      </trkpt>
      <trkpt lat="40.72630570270121097564697265625" lon="-74.0348225645720958709716796875">
        <ele>0.20000000298023223876953125</ele>
        <time>2026-01-12T19:51:08.000Z</time>
        <extensions>
          <ns3:TrackPointExtension>
            <ns3:hr>133</ns3:hr>
            <ns3:cad>82</ns3:cad>
          </ns3:TrackPointExtension>
        </extensions>
      </trkpt>
      <trkpt lat="40.72628575377166271209716796875" lon="-74.03477168641984462738037109375">
        <ele>0.20000000298023223876953125</ele>
        <time>2026-01-12T19:51:10.000Z</time>
        <extensions>
          <ns3:TrackPointExtension>
            <ns3:hr>133</ns3:hr>
            <ns3:cad>82</ns3:cad>
          </ns3:TrackPointExtension>
        </extensions>
      </trkpt>
      <trkpt lat="40.72629648260772228240966796875" lon="-74.0345087461173534393310546875">
        <ele>0</ele>
        <time>2026-01-12T19:51:22.000Z</time>
        <extensions>
          <ns3:TrackPointExtension>
            <ns3:hr>136</ns3:hr>
            <ns3:cad>83</ns3:cad>
          </ns3:TrackPointExtension>
        </extensions>
      </trkpt>
      <trkpt lat="40.72642237879335880279541015625" lon="-74.0341734699904918670654296875">
        <ele>0</ele>
        <time>2026-01-12T19:51:38.000Z</time>
        <extensions>
          <ns3:TrackPointExtension>
            <ns3:hr>136</ns3:hr>
            <ns3:cad>83</ns3:cad>
          </ns3:TrackPointExtension>
        </extensions>
      </trkpt>
      <trkpt lat="40.7265713252127170562744140625" lon="-74.03376434929668903350830078125">
        <ele>0</ele>
        <time>2026-01-12T19:51:47.000Z</time>
        <extensions>
          <ns3:TrackPointExtension>
            <ns3:hr>135</ns3:hr>
            <ns3:cad>81</ns3:cad>
          </ns3:TrackPointExtension>
        </extensions>
      </trkpt>
      <trkpt lat="40.726566128432750701904296875" lon="-74.03348959051072597503662109375">
        <ele>0</ele>
        <time>2026-01-12T19:51:53.000Z</time>
        <extensions>
          <ns3:TrackPointExtension>
            <ns3:hr>134</ns3:hr>
            <ns3:cad>81</ns3:cad>
          </ns3:TrackPointExtension>
        </extensions>
      </trkpt>
      <trkpt lat="40.7264752686023712158203125" lon="-74.03324835933744907379150390625">
        <ele>0</ele>
        <time>2026-01-12T19:52:01.000Z</time>
        <extensions>
          <ns3:TrackPointExtension>
            <ns3:hr>135</ns3:hr>
            <ns3:cad>80</ns3:cad>
          </ns3:TrackPointExtension>
        </extensions>
      </trkpt>
      <trkpt lat="40.72640695609152317047119140625" lon="-74.03301299549639225006103515625">
        <ele>0</ele>
        <time>2026-01-12T19:52:09.000Z</time>
        <extensions>
          <ns3:TrackPointExtension>
            <ns3:hr>137</ns3:hr>
            <ns3:cad>79</ns3:cad>
          </ns3:TrackPointExtension>
        </extensions>
      </trkpt>
      <trkpt lat="40.72637376375496387481689453125" lon="-74.03290428221225738525390625">
        <ele>0</ele>
        <time>2026-01-12T19:52:12.000Z</time>
        <extensions>
          <ns3:TrackPointExtension>
            <ns3:hr>137</ns3:hr>
            <ns3:cad>80</ns3:cad>
          </ns3:TrackPointExtension>
        </extensions>
      </trkpt>
      <trkpt lat="40.72634325362741947174072265625" lon="-74.03265911154448986053466796875">
        <ele>0</ele>
        <time>2026-01-12T19:52:21.000Z</time>
        <extensions>
          <ns3:TrackPointExtension>
            <ns3:hr>139</ns3:hr>
            <ns3:cad>0</ns3:cad>
          </ns3:TrackPointExtension>
        </extensions>
      </trkpt>
      <trkpt lat="40.72631408460438251495361328125" lon="-74.03246842324733734130859375">
        <ele>0</ele>
        <time>2026-01-12T19:52:27.000Z</time>
        <extensions>
          <ns3:TrackPointExtension>
            <ns3:hr>138</ns3:hr>
            <ns3:cad>82</ns3:cad>
          </ns3:TrackPointExtension>
        </extensions>
      </trkpt>
      <trkpt lat="40.72634048759937286376953125" lon="-74.03220883570611476898193359375">
        <ele>0</ele>
        <time>2026-01-12T19:52:36.000Z</time>
        <extensions>
          <ns3:TrackPointExtension>
            <ns3:hr>136</ns3:hr>
            <ns3:cad>80</ns3:cad>
          </ns3:TrackPointExtension>
        </extensions>
      </trkpt>
      <trkpt lat="40.7263473607599735260009765625" lon="-74.031950421631336212158203125">
        <ele>0</ele>
        <time>2026-01-12T19:52:46.000Z</time>
        <extensions>
          <ns3:TrackPointExtension>
            <ns3:hr>135</ns3:hr>
            <ns3:cad>82</ns3:cad>
          </ns3:TrackPointExtension>
        </extensions>
      </trkpt>
      <trkpt lat="40.72637728415429592132568359375" lon="-74.03170256875455379486083984375">
        <ele>0</ele>
        <time>2026-01-12T19:52:56.000Z</time>
        <extensions>
          <ns3:TrackPointExtension>
            <ns3:hr>136</ns3:hr>
            <ns3:cad>83</ns3:cad>
          </ns3:TrackPointExtension>
        </extensions>
      </trkpt>
      <trkpt lat="40.726417601108551025390625" lon="-74.0315019898116588592529296875">
        <ele>0</ele>
        <time>2026-01-12T19:53:05.000Z</time>
        <extensions>
          <ns3:TrackPointExtension>
            <ns3:hr>139</ns3:hr>
            <ns3:cad>69</ns3:cad>
          </ns3:TrackPointExtension>
        </extensions>
      </trkpt>
      <trkpt lat="40.726436711847782135009765625" lon="-74.0312347747385501861572265625">
        <ele>0</ele>
        <time>2026-01-12T19:53:12.000Z</time>
        <extensions>
          <ns3:TrackPointExtension>
            <ns3:hr>140</ns3:hr>
            <ns3:cad>83</ns3:cad>
          </ns3:TrackPointExtension>
        </extensions>
      </trkpt>
      <trkpt lat="40.72634358890354633331298828125" lon="-74.030986838042736053466796875">
        <ele>0</ele>
        <time>2026-01-12T19:53:18.000Z</time>
        <extensions>
          <ns3:TrackPointExtension>
            <ns3:hr>139</ns3:hr>
            <ns3:cad>82</ns3:cad>
          </ns3:TrackPointExtension>
        </extensions>
      </trkpt>
      <trkpt lat="40.726275779306888580322265625" lon="-74.03074502013623714447021484375">
        <ele>0</ele>
        <time>2026-01-12T19:53:24.000Z</time>
        <extensions>
          <ns3:TrackPointExtension>
            <ns3:hr>140</ns3:hr>
            <ns3:cad>83</ns3:cad>
          </ns3:TrackPointExtension>
        </extensions>
      </trkpt>
      <trkpt lat="40.7263004221022129058837890625" lon="-74.030492305755615234375">
        <ele>0</ele>
        <time>2026-01-12T19:53:32.000Z</time>
        <extensions>
          <ns3:TrackPointExtension>
            <ns3:hr>138</ns3:hr>
            <ns3:cad>82</ns3:cad>
          </ns3:TrackPointExtension>
        </extensions>
      </trkpt>
      <trkpt lat="40.72640486061573028564453125" lon="-74.03030849061906337738037109375">
        <ele>0</ele>
        <time>2026-01-12T19:53:40.000Z</time>
        <extensions>
          <ns3:TrackPointExtension>
            <ns3:hr>139</ns3:hr>
            <ns3:cad>80</ns3:cad>
          </ns3:TrackPointExtension>
        </extensions>
      </trkpt>
      <trkpt lat="40.7264511287212371826171875" lon="-74.0302795730531215667724609375">
        <ele>0</ele>
        <time>2026-01-12T19:53:43.000Z</time>
        <extensions>
          <ns3:TrackPointExtension>
            <ns3:hr>139</ns3:hr>
            <ns3:cad>82</ns3:cad>
          </ns3:TrackPointExtension>
        </extensions>
      </trkpt>
      <trkpt lat="40.72662639431655406951904296875" lon="-74.0303714387118816375732421875">
        <ele>0</ele>
        <time>2026-01-12T19:53:53.000Z</time>
        <extensions>
          <ns3:TrackPointExtension>
            <ns3:hr>137</ns3:hr>
            <ns3:cad>81</ns3:cad>
          </ns3:TrackPointExtension>
        </extensions>
      </trkpt>
      <trkpt lat="40.726749189198017120361328125" lon="-74.0305461175739765167236328125">
        <ele>0</ele>
        <time>2026-01-12T19:53:59.000Z</time>
        <extensions>
          <ns3:TrackPointExtension>
            <ns3:hr>137</ns3:hr>
            <ns3:cad>83</ns3:cad>
          </ns3:TrackPointExtension>
        </extensions>
      </trkpt>
      <trkpt lat="40.72681532241404056549072265625" lon="-74.030709899961948394775390625">
        <ele>0</ele>
        <time>2026-01-12T19:54:05.000Z</time>
        <extensions>
          <ns3:TrackPointExtension>
            <ns3:hr>137</ns3:hr>
            <ns3:cad>83</ns3:cad>
          </ns3:TrackPointExtension>
        </extensions>
      </trkpt>
      <trkpt lat="40.72687181644141674041748046875" lon="-74.030793048441410064697265625">
        <ele>0</ele>
        <time>2026-01-12T19:54:09.000Z</time>
        <extensions>
          <ns3:TrackPointExtension>
            <ns3:hr>135</ns3:hr>
            <ns3:cad>83</ns3:cad>
          </ns3:TrackPointExtension>
        </extensions>
      </trkpt>
      <trkpt lat="40.72704951278865337371826171875" lon="-74.03079128824174404144287109375">
        <ele>0</ele>
        <time>2026-01-12T19:54:15.000Z</time>
        <extensions>
          <ns3:TrackPointExtension>
            <ns3:hr>134</ns3:hr>
            <ns3:cad>83</ns3:cad>
          </ns3:TrackPointExtension>
        </extensions>
      </trkpt>
      <trkpt lat="40.72722570039331912994384765625" lon="-74.03069271706044673919677734375">
        <ele>0</ele>
        <time>2026-01-12T19:54:22.000Z</time>
        <extensions>
          <ns3:TrackPointExtension>
            <ns3:hr>133</ns3:hr>
            <ns3:cad>82</ns3:cad>
          </ns3:TrackPointExtension>
        </extensions>
      </trkpt>
      <trkpt lat="40.7273444719612598419189453125" lon="-74.03062700293958187103271484375">
        <ele>0</ele>
        <time>2026-01-12T19:54:27.000Z</time>
        <extensions>
          <ns3:TrackPointExtension>
            <ns3:hr>136</ns3:hr>
            <ns3:cad>81</ns3:cad>
          </ns3:TrackPointExtension>
        </extensions>
      </trkpt>
      <trkpt lat="40.7274757325649261474609375" lon="-74.030587188899517059326171875">
        <ele>0</ele>
        <time>2026-01-12T19:54:31.000Z</time>
        <extensions>
          <ns3:TrackPointExtension>
            <ns3:hr>139</ns3:hr>
            <ns3:cad>81</ns3:cad>
          </ns3:TrackPointExtension>
        </extensions>
      </trkpt>
      <trkpt lat="40.7276867888867855072021484375" lon="-74.0306004323065280914306640625">
        <ele>0</ele>
        <time>2026-01-12T19:54:37.000Z</time>
        <extensions>
          <ns3:TrackPointExtension>
            <ns3:hr>138</ns3:hr>
            <ns3:cad>82</ns3:cad>
          </ns3:TrackPointExtension>
        </extensions>
      </trkpt>
      <trkpt lat="40.7277853600680828094482421875" lon="-74.03061912395060062408447265625">
        <ele>0</ele>
        <time>2026-01-12T19:54:41.000Z</time>
        <extensions>
          <ns3:TrackPointExtension>
            <ns3:hr>141</ns3:hr>
            <ns3:cad>81</ns3:cad>
          </ns3:TrackPointExtension>
        </extensions>
      </trkpt>
      <trkpt lat="40.72792190127074718475341796875" lon="-74.03077863156795501708984375">
        <ele>0</ele>
        <time>2026-01-12T19:54:50.000Z</time>
        <extensions>
          <ns3:TrackPointExtension>
            <ns3:hr>143</ns3:hr>
            <ns3:cad>79</ns3:cad>
          </ns3:TrackPointExtension>
        </extensions>
      </trkpt>
      <trkpt lat="40.727959536015987396240234375" lon="-74.03101332485675811767578125">
        <ele>0</ele>
        <time>2026-01-12T19:54:59.000Z</time>
        <extensions>
          <ns3:TrackPointExtension>
            <ns3:hr>143</ns3:hr>
            <ns3:cad>82</ns3:cad>
          </ns3:TrackPointExtension>
        </extensions>
      </trkpt>
      <trkpt lat="40.72798023931682109832763671875" lon="-74.03111122548580169677734375">
        <ele>0</ele>
        <time>2026-01-12T19:55:07.000Z</time>
        <extensions>
          <ns3:TrackPointExtension>
            <ns3:hr>141</ns3:hr>
            <ns3:cad>81</ns3:cad>
          </ns3:TrackPointExtension>
        </extensions>
      </trkpt>
      <trkpt lat="40.72810730896890163421630859375" lon="-74.03111382387578487396240234375">
        <ele>0</ele>
        <time>2026-01-12T19:55:12.000Z</time>
        <extensions>
          <ns3:TrackPointExtension>
            <ns3:hr>139</ns3:hr>
            <ns3:cad>79</ns3:cad>
          </ns3:TrackPointExtension>
        </extensions>
      </trkpt>
      <trkpt lat="40.72818861342966556549072265625" lon="-74.0310952998697757720947265625">
        <ele>0</ele>
        <time>2026-01-12T19:55:16.000Z</time>
        <extensions>
          <ns3:TrackPointExtension>
            <ns3:hr>142</ns3:hr>
            <ns3:cad>80</ns3:cad>
          </ns3:TrackPointExtension>
        </extensions>
      </trkpt>
      <trkpt lat="40.72823521681129932403564453125" lon="-74.03108767233788967132568359375">
        <ele>0</ele>
        <time>2026-01-12T19:55:18.000Z</time>
        <extensions>
          <ns3:TrackPointExtension>
            <ns3:hr>145</ns3:hr>
            <ns3:cad>81</ns3:cad>
          </ns3:TrackPointExtension>
        </extensions>
      </trkpt>
      <trkpt lat="40.728278718888759613037109375" lon="-74.03107325546443462371826171875">
        <ele>0</ele>
        <time>2026-01-12T19:55:20.000Z</time>
        <extensions>
          <ns3:TrackPointExtension>
            <ns3:hr>148</ns3:hr>
            <ns3:cad>81</ns3:cad>
          </ns3:TrackPointExtension>
        </extensions>
      </trkpt>
      <trkpt lat="40.7284736819565296173095703125" lon="-74.03111717663705348968505859375">
        <ele>0</ele>
        <time>2026-01-12T19:55:26.000Z</time>
        <extensions>
          <ns3:TrackPointExtension>
            <ns3:hr>151</ns3:hr>
            <ns3:cad>81</ns3:cad>
          </ns3:TrackPointExtension>
        </extensions>
      </trkpt>
      <trkpt lat="40.728664956986904144287109375" lon="-74.03120577335357666015625">
        <ele>0</ele>
        <time>2026-01-12T19:55:33.000Z</time>
        <extensions>
          <ns3:TrackPointExtension>
            <ns3:hr>152</ns3:hr>
            <ns3:cad>80</ns3:cad>
          </ns3:TrackPointExtension>
        </extensions>
      </trkpt>
      <trkpt lat="40.7288522087037563323974609375" lon="-74.031171239912509918212890625">
        <ele>0</ele>
        <time>2026-01-12T19:55:41.000Z</time>
        <extensions>
          <ns3:TrackPointExtension>
            <ns3:hr>151</ns3:hr>
            <ns3:cad>81</ns3:cad>
          </ns3:TrackPointExtension>
        </extensions>
      </trkpt>
      <trkpt lat="40.7290295697748661041259765625" lon="-74.03110158629715442657470703125">
        <ele>0</ele>
        <time>2026-01-12T19:55:49.000Z</time>
        <extensions>
          <ns3:TrackPointExtension>
            <ns3:hr>153</ns3:hr>
            <ns3:cad>79</ns3:cad>
          </ns3:TrackPointExtension>
        </extensions>
      </trkpt>
      <trkpt lat="40.72921975515782833099365234375" lon="-74.03112103231251239776611328125">
        <ele>0</ele>
        <time>2026-01-12T19:55:57.000Z</time>
        <extensions>
          <ns3:TrackPointExtension>
            <ns3:hr>153</ns3:hr>
            <ns3:cad>79</ns3:cad>
          </ns3:TrackPointExtension>
        </extensions>
      </trkpt>
      <trkpt lat="40.7293380238115787506103515625" lon="-74.0311616845428943634033203125">
        <ele>0</ele>
        <time>2026-01-12T19:56:02.000Z</time>
        <extensions>
          <ns3:TrackPointExtension>
            <ns3:hr>154</ns3:hr>
            <ns3:cad>80</ns3:cad>
          </ns3:TrackPointExtension>
        </extensions>
      </trkpt>
      <trkpt lat="40.72941907681524753570556640625" lon="-74.0312797017395496368408203125">
        <ele>0</ele>
        <time>2026-01-12T19:56:10.000Z</time>
        <extensions>
          <ns3:TrackPointExtension>
            <ns3:hr>154</ns3:hr>
            <ns3:cad>79</ns3:cad>
          </ns3:TrackPointExtension>
        </extensions>
      </trkpt>
      <trkpt lat="40.72960834018886089324951171875" lon="-74.03134281747043132781982421875">
        <ele>0</ele>
        <time>2026-01-12T19:56:24.000Z</time>
        <extensions>
          <ns3:TrackPointExtension>
            <ns3:hr>157</ns3:hr>
            <ns3:cad>81</ns3:cad>
          </ns3:TrackPointExtension>
        </extensions>
      </trkpt>
      <trkpt lat="40.72976768016815185546875" lon="-74.031350612640380859375">
        <ele>0</ele>
        <time>2026-01-12T19:56:32.000Z</time>
        <extensions>
          <ns3:TrackPointExtension>
            <ns3:hr>157</ns3:hr>
            <ns3:cad>80</ns3:cad>
          </ns3:TrackPointExtension>
        </extensions>
      </trkpt>
      <trkpt lat="40.7299579493701457977294921875" lon="-74.031319431960582733154296875">
        <ele>0</ele>
        <time>2026-01-12T19:56:39.000Z</time>
        <extensions>
          <ns3:TrackPointExtension>
            <ns3:hr>156</ns3:hr>
            <ns3:cad>80</ns3:cad>
          </ns3:TrackPointExtension>
        </extensions>
      </trkpt>
      <trkpt lat="40.73014612309634685516357421875" lon="-74.0313192643225193023681640625">
        <ele>0</ele>
        <time>2026-01-12T19:56:46.000Z</time>
        <extensions>
          <ns3:TrackPointExtension>
            <ns3:hr>155</ns3:hr>
            <ns3:cad>81</ns3:cad>
          </ns3:TrackPointExtension>
        </extensions>
      </trkpt>
      <trkpt lat="40.73016841895878314971923828125" lon="-74.03131641447544097900390625">
        <ele>0</ele>
        <time>2026-01-12T19:56:47.000Z</time>
        <extensions>
          <ns3:TrackPointExtension>
            <ns3:hr>155</ns3:hr>
            <ns3:cad>81</ns3:cad>
          </ns3:TrackPointExtension>
        </extensions>
      </trkpt>
      <trkpt lat="40.7302330434322357177734375" lon="-74.0313286520540714263916015625">
        <ele>0</ele>
        <time>2026-01-12T19:56:51.000Z</time>
        <extensions>
          <ns3:TrackPointExtension>
            <ns3:hr>153</ns3:hr>
            <ns3:cad>80</ns3:cad>
          </ns3:TrackPointExtension>
        </extensions>
      </trkpt>
      <trkpt lat="40.73037318885326385498046875" lon="-74.031375087797641754150390625">
        <ele>0</ele>
        <time>2026-01-12T19:56:56.000Z</time>
        <extensions>
          <ns3:TrackPointExtension>
            <ns3:hr>150</ns3:hr>
            <ns3:cad>81</ns3:cad>
          </ns3:TrackPointExtension>
        </extensions>
      </trkpt>
      <trkpt lat="40.730563960969448089599609375" lon="-74.03149486519396305084228515625">
        <ele>0</ele>
        <time>2026-01-12T19:57:03.000Z</time>
        <extensions>
          <ns3:TrackPointExtension>
            <ns3:hr>151</ns3:hr>
            <ns3:cad>80</ns3:cad>
          </ns3:TrackPointExtension>
        </extensions>
      </trkpt>
      <trkpt lat="40.730592124164104461669921875" lon="-74.03149587102234363555908203125">
        <ele>0</ele>
        <time>2026-01-12T19:57:04.000Z</time>
        <extensions>
          <ns3:TrackPointExtension>
            <ns3:hr>151</ns3:hr>
            <ns3:cad>81</ns3:cad>
          </ns3:TrackPointExtension>
        </extensions>
      </trkpt>
      <trkpt lat="40.73068608529865741729736328125" lon="-74.0313947014510631561279296875">
        <ele>0</ele>
        <time>2026-01-12T19:57:09.000Z</time>
        <extensions>
          <ns3:TrackPointExtension>
            <ns3:hr>152</ns3:hr>
            <ns3:cad>82</ns3:cad>
          </ns3:TrackPointExtension>
        </extensions>
      </trkpt>
      <trkpt lat="40.73074643500149250030517578125" lon="-74.0311963856220245361328125">
        <ele>0</ele>
        <time>2026-01-12T19:57:16.000Z</time>
        <extensions>
          <ns3:TrackPointExtension>
            <ns3:hr>150</ns3:hr>
            <ns3:cad>79</ns3:cad>
          </ns3:TrackPointExtension>
        </extensions>
      </trkpt>
      <trkpt lat="40.73064149357378482818603515625" lon="-74.030974097549915313720703125">
        <ele>0</ele>
        <time>2026-01-12T19:57:28.000Z</time>
        <extensions>
          <ns3:TrackPointExtension>
            <ns3:hr>151</ns3:hr>
            <ns3:cad>80</ns3:cad>
          </ns3:TrackPointExtension>
        </extensions>
      </trkpt>
      <trkpt lat="40.730629675090312957763671875" lon="-74.03069321997463703155517578125">
        <ele>0</ele>
        <time>2026-01-12T19:57:37.000Z</time>
        <extensions>
          <ns3:TrackPointExtension>
            <ns3:hr>151</ns3:hr>
            <ns3:cad>80</ns3:cad>
          </ns3:TrackPointExtension>
        </extensions>
      </trkpt>
      <trkpt lat="40.73064149357378482818603515625" lon="-74.030526839196681976318359375">
        <ele>0</ele>
        <time>2026-01-12T19:57:40.000Z</time>
        <extensions>
          <ns3:TrackPointExtension>
            <ns3:hr>148</ns3:hr>
            <ns3:cad>79</ns3:cad>
          </ns3:TrackPointExtension>
        </extensions>
      </trkpt>
      <trkpt lat="40.7306392304599285125732421875" lon="-74.03047679923474788665771484375">
        <ele>0</ele>
        <time>2026-01-12T19:57:41.000Z</time>
        <extensions>
          <ns3:TrackPointExtension>
            <ns3:hr>145</ns3:hr>
            <ns3:cad>79</ns3:cad>
          </ns3:TrackPointExtension>
        </extensions>
      </trkpt>
      <trkpt lat="40.73063814081251621246337890625" lon="-74.0304331295192241668701171875">
        <ele>0</ele>
        <time>2026-01-12T19:57:42.000Z</time>
        <extensions>
          <ns3:TrackPointExtension>
            <ns3:hr>145</ns3:hr>
            <ns3:cad>79</ns3:cad>
          </ns3:TrackPointExtension>
        </extensions>
      </trkpt>
      <trkpt lat="40.730633027851581573486328125" lon="-74.0301799960434436798095703125">
        <ele>0</ele>
        <time>2026-01-12T19:57:49.000Z</time>
        <extensions>
          <ns3:TrackPointExtension>
            <ns3:hr>148</ns3:hr>
            <ns3:cad>79</ns3:cad>
          </ns3:TrackPointExtension>
        </extensions>
      </trkpt>
      <trkpt lat="40.73066362179815769195556640625" lon="-74.02991219423711299896240234375">
        <ele>0</ele>
        <time>2026-01-12T19:57:57.000Z</time>
        <extensions>
          <ns3:TrackPointExtension>
            <ns3:hr>147</ns3:hr>
            <ns3:cad>81</ns3:cad>
          </ns3:TrackPointExtension>
        </extensions>
      </trkpt>
      <trkpt lat="40.73070569895207881927490234375" lon="-74.029683284461498260498046875">
        <ele>0</ele>
        <time>2026-01-12T19:58:09.000Z</time>
        <extensions>
          <ns3:TrackPointExtension>
            <ns3:hr>149</ns3:hr>
            <ns3:cad>79</ns3:cad>
          </ns3:TrackPointExtension>
        </extensions>
      </trkpt>
      <trkpt lat="40.73084064759314060211181640625" lon="-74.029627628624439239501953125">
        <ele>0</ele>
        <time>2026-01-12T19:58:16.000Z</time>
        <extensions>
          <ns3:TrackPointExtension>
            <ns3:hr>152</ns3:hr>
            <ns3:cad>80</ns3:cad>
          </ns3:TrackPointExtension>
        </extensions>
      </trkpt>
      <trkpt lat="40.73085791431367397308349609375" lon="-74.0296272933483123779296875">
        <ele>0</ele>
        <time>2026-01-12T19:58:17.000Z</time>
        <extensions>
          <ns3:TrackPointExtension>
            <ns3:hr>152</ns3:hr>
            <ns3:cad>80</ns3:cad>
          </ns3:TrackPointExtension>
        </extensions>
      </trkpt>
      <trkpt lat="40.73100292123854160308837890625" lon="-74.02958513237535953521728515625">
        <ele>0</ele>
        <time>2026-01-12T19:58:25.000Z</time>
        <extensions>
          <ns3:TrackPointExtension>
            <ns3:hr>154</ns3:hr>
            <ns3:cad>80</ns3:cad>
          </ns3:TrackPointExtension>
        </extensions>
      </trkpt>
      <trkpt lat="40.7310390472412109375" lon="-74.0293495170772075653076171875">
        <ele>0</ele>
        <time>2026-01-12T19:58:33.000Z</time>
        <extensions>
          <ns3:TrackPointExtension>
            <ns3:hr>153</ns3:hr>
            <ns3:cad>80</ns3:cad>
          </ns3:TrackPointExtension>
        </extensions>
      </trkpt>
      <trkpt lat="40.73102957569062709808349609375" lon="-74.0291356109082698822021484375">
        <ele>0</ele>
        <time>2026-01-12T19:58:39.000Z</time>
        <extensions>
          <ns3:TrackPointExtension>
            <ns3:hr>156</ns3:hr>
            <ns3:cad>81</ns3:cad>
          </ns3:TrackPointExtension>
        </extensions>
      </trkpt>
      <trkpt lat="40.7309921085834503173828125" lon="-74.0288948826491832733154296875">
        <ele>0</ele>
        <time>2026-01-12T19:58:46.000Z</time>
        <extensions>
          <ns3:TrackPointExtension>
            <ns3:hr>159</ns3:hr>
            <ns3:cad>82</ns3:cad>
          </ns3:TrackPointExtension>
        </extensions>
      </trkpt>
      <trkpt lat="40.73092865757644176483154296875" lon="-74.02864015661180019378662109375">
        <ele>0</ele>
        <time>2026-01-12T19:58:54.000Z</time>
        <extensions>
          <ns3:TrackPointExtension>
            <ns3:hr>160</ns3:hr>
            <ns3:cad>81</ns3:cad>
          </ns3:TrackPointExtension>
        </extensions>
      </trkpt>
      <trkpt lat="40.7308633625507354736328125" lon="-74.02839255519211292266845703125">
        <ele>0</ele>
        <time>2026-01-12T19:59:04.000Z</time>
        <extensions>
          <ns3:TrackPointExtension>
            <ns3:hr>158</ns3:hr>
            <ns3:cad>78</ns3:cad>
          </ns3:TrackPointExtension>
        </extensions>
      </trkpt>
      <trkpt lat="40.73088347911834716796875" lon="-74.0282191336154937744140625">
        <ele>0</ele>
        <time>2026-01-12T19:59:11.000Z</time>
        <extensions>
          <ns3:TrackPointExtension>
            <ns3:hr>155</ns3:hr>
            <ns3:cad>78</ns3:cad>
          </ns3:TrackPointExtension>
        </extensions>
      </trkpt>
      <trkpt lat="40.73091457597911357879638671875" lon="-74.028200022876262664794921875">
        <ele>0</ele>
        <time>2026-01-12T19:59:13.000Z</time>
        <extensions>
          <ns3:TrackPointExtension>
            <ns3:hr>154</ns3:hr>
            <ns3:cad>77</ns3:cad>
          </ns3:TrackPointExtension>
        </extensions>
      </trkpt>
      <trkpt lat="40.73098196648061275482177734375" lon="-74.02822340838611125946044921875">
        <ele>0</ele>
        <time>2026-01-12T19:59:17.000Z</time>
        <extensions>
          <ns3:TrackPointExtension>
            <ns3:hr>154</ns3:hr>
            <ns3:cad>80</ns3:cad>
          </ns3:TrackPointExtension>
        </extensions>
      </trkpt>
      <trkpt lat="40.73100082576274871826171875" lon="-74.0283586084842681884765625">
        <ele>0</ele>
        <time>2026-01-12T19:59:23.000Z</time>
        <extensions>
          <ns3:TrackPointExtension>
            <ns3:hr>157</ns3:hr>
            <ns3:cad>80</ns3:cad>
          </ns3:TrackPointExtension>
        </extensions>
      </trkpt>
      <trkpt lat="40.7310080341994762420654296875" lon="-74.0285187028348445892333984375">
        <ele>0</ele>
        <time>2026-01-12T19:59:28.000Z</time>
        <extensions>
          <ns3:TrackPointExtension>
            <ns3:hr>160</ns3:hr>
            <ns3:cad>82</ns3:cad>
          </ns3:TrackPointExtension>
        </extensions>
      </trkpt>
      <trkpt lat="40.73102840222418308258056640625" lon="-74.02868642471730709075927734375">
        <ele>0</ele>
        <time>2026-01-12T19:59:33.000Z</time>
        <extensions>
          <ns3:TrackPointExtension>
            <ns3:hr>163</ns3:hr>
            <ns3:cad>83</ns3:cad>
          </ns3:TrackPointExtension>
        </extensions>
      </trkpt>
      <trkpt lat="40.731042735278606414794921875" lon="-74.02891474775969982147216796875">
        <ele>0</ele>
        <time>2026-01-12T19:59:40.000Z</time>
        <extensions>
          <ns3:TrackPointExtension>
            <ns3:hr>160</ns3:hr>
            <ns3:cad>82</ns3:cad>
          </ns3:TrackPointExtension>
        </extensions>
      </trkpt>
      <trkpt lat="40.7310851477086544036865234375" lon="-74.02914541773498058319091796875">
        <ele>0</ele>
        <time>2026-01-12T19:59:47.000Z</time>
        <extensions>
          <ns3:TrackPointExtension>
            <ns3:hr>160</ns3:hr>
            <ns3:cad>81</ns3:cad>
          </ns3:TrackPointExtension>
        </extensions>
      </trkpt>
      <trkpt lat="40.7311074435710906982421875" lon="-74.02927835471928119659423828125">
        <ele>0</ele>
        <time>2026-01-12T19:59:52.000Z</time>
        <extensions>
          <ns3:TrackPointExtension>
            <ns3:hr>157</ns3:hr>
            <ns3:cad>80</ns3:cad>
          </ns3:TrackPointExtension>
        </extensions>
      </trkpt>
      <trkpt lat="40.73111775331199169158935546875" lon="-74.02940190397202968597412109375">
        <ele>0</ele>
        <time>2026-01-12T19:59:56.000Z</time>
        <extensions>
          <ns3:TrackPointExtension>
            <ns3:hr>154</ns3:hr>
            <ns3:cad>80</ns3:cad>
          </ns3:TrackPointExtension>
        </extensions>
      </trkpt>
      <trkpt lat="40.73114893399178981781005859375" lon="-74.0296663530170917510986328125">
        <ele>0</ele>
        <time>2026-01-12T20:00:04.000Z</time>
        <extensions>
          <ns3:TrackPointExtension>
            <ns3:hr>152</ns3:hr>
            <ns3:cad>80</ns3:cad>
          </ns3:TrackPointExtension>
        </extensions>
      </trkpt>
      <trkpt lat="40.73113384656608104705810546875" lon="-74.02981974184513092041015625">
        <ele>0</ele>
        <time>2026-01-12T20:00:07.000Z</time>
        <extensions>
          <ns3:TrackPointExtension>
            <ns3:hr>149</ns3:hr>
            <ns3:cad>80</ns3:cad>
          </ns3:TrackPointExtension>
        </extensions>
      </trkpt>
      <trkpt lat="40.73110953904688358306884765625" lon="-74.03006994165480136871337890625">
        <ele>0</ele>
        <time>2026-01-12T20:00:14.000Z</time>
        <extensions>
          <ns3:TrackPointExtension>
            <ns3:hr>148</ns3:hr>
            <ns3:cad>81</ns3:cad>
          </ns3:TrackPointExtension>
        </extensions>
      </trkpt>
      <trkpt lat="40.73111372999846935272216796875" lon="-74.03031704016029834747314453125">
        <ele>0</ele>
        <time>2026-01-12T20:00:22.000Z</time>
        <extensions>
          <ns3:TrackPointExtension>
            <ns3:hr>145</ns3:hr>
            <ns3:cad>80</ns3:cad>
          </ns3:TrackPointExtension>
        </extensions>
      </trkpt>
      <trkpt lat="40.7311136461794376373291015625" lon="-74.030383341014385223388671875">
        <ele>0</ele>
        <time>2026-01-12T20:00:24.000Z</time>
        <extensions>
          <ns3:TrackPointExtension>
            <ns3:hr>142</ns3:hr>
            <ns3:cad>82</ns3:cad>
          </ns3:TrackPointExtension>
        </extensions>
      </trkpt>
      <trkpt lat="40.7311186753213405609130859375" lon="-74.03047076426446437835693359375">
        <ele>0</ele>
        <time>2026-01-12T20:00:27.000Z</time>
        <extensions>
          <ns3:TrackPointExtension>
            <ns3:hr>139</ns3:hr>
            <ns3:cad>80</ns3:cad>
          </ns3:TrackPointExtension>
        </extensions>
      </trkpt>
      <trkpt lat="40.7311522029340267181396484375" lon="-74.0306721813976764678955078125">
        <ele>0</ele>
        <time>2026-01-12T20:00:33.000Z</time>
        <extensions>
          <ns3:TrackPointExtension>
            <ns3:hr>137</ns3:hr>
            <ns3:cad>82</ns3:cad>
          </ns3:TrackPointExtension>
        </extensions>
      </trkpt>
      <trkpt lat="40.731203667819499969482421875" lon="-74.0309015102684497833251953125">
        <ele>0</ele>
        <time>2026-01-12T20:00:40.000Z</time>
        <extensions>
          <ns3:TrackPointExtension>
            <ns3:hr>138</ns3:hr>
            <ns3:cad>81</ns3:cad>
          </ns3:TrackPointExtension>
        </extensions>
      </trkpt>
      <trkpt lat="40.7312494330108165740966796875" lon="-74.031006284058094024658203125">
        <ele>0</ele>
        <time>2026-01-12T20:00:45.000Z</time>
        <extensions>
          <ns3:TrackPointExtension>
            <ns3:hr>141</ns3:hr>
            <ns3:cad>80</ns3:cad>
          </ns3:TrackPointExtension>
        </extensions>
      </trkpt>
      <trkpt lat="40.73126527480781078338623046875" lon="-74.03100519441068172454833984375">
        <ele>0</ele>
        <time>2026-01-12T20:00:46.000Z</time>
        <extensions>
          <ns3:TrackPointExtension>
            <ns3:hr>141</ns3:hr>
            <ns3:cad>80</ns3:cad>
          </ns3:TrackPointExtension>
        </extensions>
      </trkpt>
      <trkpt lat="40.73145143687725067138671875" lon="-74.0309152565896511077880859375">
        <ele>0</ele>
        <time>2026-01-12T20:00:54.000Z</time>
        <extensions>
          <ns3:TrackPointExtension>
            <ns3:hr>142</ns3:hr>
            <ns3:cad>81</ns3:cad>
          </ns3:TrackPointExtension>
        </extensions>
      </trkpt>
      <trkpt lat="40.73158076964318752288818359375" lon="-74.030838310718536376953125">
        <ele>0</ele>
        <time>2026-01-12T20:00:59.000Z</time>
        <extensions>
          <ns3:TrackPointExtension>
            <ns3:hr>145</ns3:hr>
            <ns3:cad>80</ns3:cad>
          </ns3:TrackPointExtension>
        </extensions>
      </trkpt>
      <trkpt lat="40.73168822564184665679931640625" lon="-74.0308119915425777435302734375">
        <ele>0</ele>
        <time>2026-01-12T20:01:03.000Z</time>
        <extensions>
          <ns3:TrackPointExtension>
            <ns3:hr>148</ns3:hr>
            <ns3:cad>87</ns3:cad>
          </ns3:TrackPointExtension>
        </extensions>
      </trkpt>
      <trkpt lat="40.731878913938999176025390625" lon="-74.03081081807613372802734375">
        <ele>0</ele>
        <time>2026-01-12T20:01:10.000Z</time>
        <extensions>
          <ns3:TrackPointExtension>
            <ns3:hr>149</ns3:hr>
            <ns3:cad>85</ns3:cad>
          </ns3:TrackPointExtension>
        </extensions>
      </trkpt>
      <trkpt lat="40.73206289671361446380615234375" lon="-74.0308525599539279937744140625">
        <ele>0</ele>
        <time>2026-01-12T20:01:15.000Z</time>
        <extensions>
          <ns3:TrackPointExtension>
            <ns3:hr>151</ns3:hr>
            <ns3:cad>83</ns3:cad>
          </ns3:TrackPointExtension>
        </extensions>
      </trkpt>
      <trkpt lat="40.73224679566919803619384765625" lon="-74.03085482306778430938720703125">
        <ele>0</ele>
        <time>2026-01-12T20:01:22.000Z</time>
        <extensions>
          <ns3:TrackPointExtension>
            <ns3:hr>149</ns3:hr>
            <ns3:cad>80</ns3:cad>
          </ns3:TrackPointExtension>
        </extensions>
      </trkpt>
      <trkpt lat="40.73244142346084117889404296875" lon="-74.0307952277362346649169921875">
        <ele>0</ele>
        <time>2026-01-12T20:01:30.000Z</time>
        <extensions>
          <ns3:TrackPointExtension>
            <ns3:hr>147</ns3:hr>
            <ns3:cad>80</ns3:cad>
          </ns3:TrackPointExtension>
        </extensions>
      </trkpt>
      <trkpt lat="40.73260369710624217987060546875" lon="-74.03081442229449748992919921875">
        <ele>0</ele>
        <time>2026-01-12T20:01:35.000Z</time>
        <extensions>
          <ns3:TrackPointExtension>
            <ns3:hr>150</ns3:hr>
            <ns3:cad>80</ns3:cad>
          </ns3:TrackPointExtension>
        </extensions>
      </trkpt>
      <trkpt lat="40.7326971553266048431396484375" lon="-74.03081140480935573577880859375">
        <ele>0</ele>
        <time>2026-01-12T20:01:38.000Z</time>
        <extensions>
          <ns3:TrackPointExtension>
            <ns3:hr>147</ns3:hr>
            <ns3:cad>80</ns3:cad>
          </ns3:TrackPointExtension>
        </extensions>
      </trkpt>
      <trkpt lat="40.73281039483845233917236328125" lon="-74.03077460825443267822265625">
        <ele>0</ele>
        <time>2026-01-12T20:01:43.000Z</time>
        <extensions>
          <ns3:TrackPointExtension>
            <ns3:hr>143</ns3:hr>
            <ns3:cad>80</ns3:cad>
          </ns3:TrackPointExtension>
        </extensions>
      </trkpt>
      <trkpt lat="40.73284442536532878875732421875" lon="-74.03074954636394977569580078125">
        <ele>0</ele>
        <time>2026-01-12T20:01:45.000Z</time>
        <extensions>
          <ns3:TrackPointExtension>
            <ns3:hr>139</ns3:hr>
            <ns3:cad>81</ns3:cad>
          </ns3:TrackPointExtension>
        </extensions>
      </trkpt>
      <trkpt lat="40.73287677951157093048095703125" lon="-74.0307332016527652740478515625">
        <ele>0</ele>
        <time>2026-01-12T20:01:47.000Z</time>
        <extensions>
          <ns3:TrackPointExtension>
            <ns3:hr>136</ns3:hr>
            <ns3:cad>83</ns3:cad>
          </ns3:TrackPointExtension>
        </extensions>
      </trkpt>
      <trkpt lat="40.73292254470288753509521484375" lon="-74.03072389774024486541748046875">
        <ele>0</ele>
        <time>2026-01-12T20:01:50.000Z</time>
        <extensions>
          <ns3:TrackPointExtension>
            <ns3:hr>133</ns3:hr>
            <ns3:cad>83</ns3:cad>
          </ns3:TrackPointExtension>
        </extensions>
      </trkpt>
      <trkpt lat="40.7329553179442882537841796875" lon="-74.03072423301637172698974609375">
        <ele>0</ele>
        <time>2026-01-12T20:01:52.000Z</time>
        <extensions>
          <ns3:TrackPointExtension>
            <ns3:hr>130</ns3:hr>
            <ns3:cad>83</ns3:cad>
          </ns3:TrackPointExtension>
        </extensions>
      </trkpt>
      <trkpt lat="40.7331486046314239501953125" lon="-74.03073177672922611236572265625">
        <ele>0</ele>
        <time>2026-01-12T20:01:58.000Z</time>
        <extensions>
          <ns3:TrackPointExtension>
            <ns3:hr>129</ns3:hr>
            <ns3:cad>83</ns3:cad>
          </ns3:TrackPointExtension>
        </extensions>
      </trkpt>
      <trkpt lat="40.73334381915628910064697265625" lon="-74.03071098960936069488525390625">
        <ele>0</ele>
        <time>2026-01-12T20:02:03.000Z</time>
        <extensions>
          <ns3:TrackPointExtension>
            <ns3:hr>130</ns3:hr>
            <ns3:cad>83</ns3:cad>
          </ns3:TrackPointExtension>
        </extensions>
      </trkpt>
      <trkpt lat="40.73343752883374691009521484375" lon="-74.0306933037936687469482421875">
        <ele>0</ele>
        <time>2026-01-12T20:02:06.000Z</time>
        <extensions>
          <ns3:TrackPointExtension>
            <ns3:hr>133</ns3:hr>
            <ns3:cad>82</ns3:cad>
          </ns3:TrackPointExtension>
        </extensions>
      </trkpt>
      <trkpt lat="40.73352076113224029541015625" lon="-74.03066472150385379791259765625">
        <ele>0</ele>
        <time>2026-01-12T20:02:09.000Z</time>
        <extensions>
          <ns3:TrackPointExtension>
            <ns3:hr>136</ns3:hr>
            <ns3:cad>81</ns3:cad>
          </ns3:TrackPointExtension>
        </extensions>
      </trkpt>
      <trkpt lat="40.7336070947349071502685546875" lon="-74.0304589457809925079345703125">
        <ele>0</ele>
        <time>2026-01-12T20:02:16.000Z</time>
        <extensions>
          <ns3:TrackPointExtension>
            <ns3:hr>137</ns3:hr>
            <ns3:cad>81</ns3:cad>
          </ns3:TrackPointExtension>
        </extensions>
      </trkpt>
      <trkpt lat="40.73369468562304973602294921875" lon="-74.03024529106914997100830078125">
        <ele>0</ele>
        <time>2026-01-12T20:02:24.000Z</time>
        <extensions>
          <ns3:TrackPointExtension>
            <ns3:hr>137</ns3:hr>
            <ns3:cad>80</ns3:cad>
          </ns3:TrackPointExtension>
        </extensions>
      </trkpt>
      <trkpt lat="40.73377749882638454437255859375" lon="-74.03001487255096435546875">
        <ele>0</ele>
        <time>2026-01-12T20:02:33.000Z</time>
        <extensions>
          <ns3:TrackPointExtension>
            <ns3:hr>136</ns3:hr>
            <ns3:cad>80</ns3:cad>
          </ns3:TrackPointExtension>
        </extensions>
      </trkpt>
      <trkpt lat="40.73379258625209331512451171875" lon="-74.029910601675510406494140625">
        <ele>0</ele>
        <time>2026-01-12T20:02:37.000Z</time>
        <extensions>
          <ns3:TrackPointExtension>
            <ns3:hr>137</ns3:hr>
            <ns3:cad>79</ns3:cad>
          </ns3:TrackPointExtension>
        </extensions>
      </trkpt>
      <trkpt lat="40.73385008610785007476806640625" lon="-74.02965520508587360382080078125">
        <ele>0.4000000059604644775390625</ele>
        <time>2026-01-12T20:02:46.000Z</time>
        <extensions>
          <ns3:TrackPointExtension>
            <ns3:hr>136</ns3:hr>
            <ns3:cad>79</ns3:cad>
          </ns3:TrackPointExtension>
        </extensions>
      </trkpt>
      <trkpt lat="40.73389920406043529510498046875" lon="-74.02941565029323101043701171875">
        <ele>0.4000000059604644775390625</ele>
        <time>2026-01-12T20:02:54.000Z</time>
        <extensions>
          <ns3:TrackPointExtension>
            <ns3:hr>136</ns3:hr>
            <ns3:cad>76</ns3:cad>
          </ns3:TrackPointExtension>
        </extensions>
      </trkpt>
      <trkpt lat="40.73393918573856353759765625" lon="-74.02936485596001148223876953125">
        <ele>0.4000000059604644775390625</ele>
        <time>2026-01-12T20:03:02.000Z</time>
        <extensions>
          <ns3:TrackPointExtension>
            <ns3:hr>142</ns3:hr>
            <ns3:cad>57</ns3:cad>
          </ns3:TrackPointExtension>
        </extensions>
      </trkpt>
      <trkpt lat="40.73394480161368846893310546875" lon="-74.0293689630925655364990234375">
        <ele>0.4000000059604644775390625</ele>
        <time>2026-01-12T20:03:03.000Z</time>
        <extensions>
          <ns3:TrackPointExtension>
            <ns3:hr>145</ns3:hr>
            <ns3:cad>55</ns3:cad>
          </ns3:TrackPointExtension>
        </extensions>
      </trkpt>
      <trkpt lat="40.7339465618133544921875" lon="-74.0293770097196102142333984375">
        <ele>0.4000000059604644775390625</ele>
        <time>2026-01-12T20:03:04.000Z</time>
        <extensions>
          <ns3:TrackPointExtension>
            <ns3:hr>146</ns3:hr>
            <ns3:cad>55</ns3:cad>
          </ns3:TrackPointExtension>
        </extensions>
      </trkpt>
      <trkpt lat="40.7339269481599330902099609375" lon="-74.029418416321277618408203125">
        <ele>0.60000002384185791015625</ele>
        <time>2026-01-12T20:03:08.000Z</time>
        <extensions>
          <ns3:TrackPointExtension>
            <ns3:hr>149</ns3:hr>
            <ns3:cad>55</ns3:cad>
          </ns3:TrackPointExtension>
        </extensions>
      </trkpt>
      <trkpt lat="40.73391781188547611236572265625" lon="-74.02943618595600128173828125">
        <ele>0.60000002384185791015625</ele>
        <time>2026-01-12T20:03:10.000Z</time>
        <extensions>
          <ns3:TrackPointExtension>
            <ns3:hr>154</ns3:hr>
            <ns3:cad>57</ns3:cad>
          </ns3:TrackPointExtension>
        </extensions>
      </trkpt>
      <trkpt lat="40.73391663841903209686279296875" lon="-74.0294457413256168365478515625">
        <ele>0.60000002384185791015625</ele>
        <time>2026-01-12T20:03:11.000Z</time>
        <extensions>
          <ns3:TrackPointExtension>
            <ns3:hr>158</ns3:hr>
            <ns3:cad>57</ns3:cad>
          </ns3:TrackPointExtension>
        </extensions>
      </trkpt>
      <trkpt lat="40.7339138723909854888916015625" lon="-74.02945227921009063720703125">
        <ele>0.60000002384185791015625</ele>
        <time>2026-01-12T20:03:12.000Z</time>
        <extensions>
          <ns3:TrackPointExtension>
            <ns3:hr>163</ns3:hr>
            <ns3:cad>57</ns3:cad>
          </ns3:TrackPointExtension>
        </extensions>
      </trkpt>
      <trkpt lat="40.73391412384808063507080078125" lon="-74.02945940382778644561767578125">
        <ele>0.60000002384185791015625</ele>
        <time>2026-01-12T20:03:13.000Z</time>
        <extensions>
          <ns3:TrackPointExtension>
            <ns3:hr>168</ns3:hr>
            <ns3:cad>57</ns3:cad>
          </ns3:TrackPointExtension>
        </extensions>
      </trkpt>
      <trkpt lat="40.7339125312864780426025390625" lon="-74.02946661226451396942138671875">
        <ele>0.60000002384185791015625</ele>
        <time>2026-01-12T20:03:14.000Z</time>
        <extensions>
          <ns3:TrackPointExtension>
            <ns3:hr>174</ns3:hr>
            <ns3:cad>56</ns3:cad>
          </ns3:TrackPointExtension>
        </extensions>
      </trkpt>
      <trkpt lat="40.733910016715526580810546875" lon="-74.0294749103486537933349609375">
        <ele>0.60000002384185791015625</ele>
        <time>2026-01-12T20:03:15.000Z</time>
        <extensions>
          <ns3:TrackPointExtension>
            <ns3:hr>178</ns3:hr>
            <ns3:cad>56</ns3:cad>
          </ns3:TrackPointExtension>
        </extensions>
      </trkpt>
      <trkpt lat="40.7338991202414035797119140625" lon="-74.02950617484748363494873046875">
        <ele>0.60000002384185791015625</ele>
        <time>2026-01-12T20:03:20.000Z</time>
        <extensions>
          <ns3:TrackPointExtension>
            <ns3:hr>174</ns3:hr>
            <ns3:cad>55</ns3:cad>
          </ns3:TrackPointExtension>
        </extensions>
      </trkpt>
      <trkpt lat="40.73390138335525989532470703125" lon="-74.0295067615807056427001953125">
        <ele>0.60000002384185791015625</ele>
        <time>2026-01-12T20:03:21.000Z</time>
        <extensions>
          <ns3:TrackPointExtension>
            <ns3:hr>174</ns3:hr>
            <ns3:cad>55</ns3:cad>
          </ns3:TrackPointExtension>
        </extensions>
      </trkpt>
      <trkpt lat="40.73390557430684566497802734375" lon="-74.02951003052294254302978515625">
        <ele>0.60000002384185791015625</ele>
        <time>2026-01-12T20:03:25.000Z</time>
        <extensions>
          <ns3:TrackPointExtension>
            <ns3:hr>172</ns3:hr>
            <ns3:cad>0</ns3:cad>
          </ns3:TrackPointExtension>
        </extensions>
      </trkpt>
    </trkseg>
  </trk>
</gpx>
